#aV2012  9  2  0  0  0.00000000     288 DD+AD WGS84 FIT  NGA
## 1704      0.00000000   300.00000000 56172 0.0000000000000
+   31     1  2  3  4  5  6  7  8  9 10 11 12 13 14 15 16 17
+         18 19 20 21 22 23 25 26 27 28 29 30 31 32  0  0  0
+          0  0  0  0  0  0  0  0  0  0  0  0  0  0  0  0  0
+          0  0  0  0  0  0  0  0  0  0  0  0  0  0  0  0  0
+          0  0  0  0  0  0  0  0  0  0  0  0  0  0  0  0  0
++         2  2  2  2  2  2  2  2  2  2  2  2  2  2  2  2  2
++         2  2  2  2  2  2  2  2  2  2  2  2  2  2  2  0  0
++         0  0  0  0  0  0  0  0  0  0  0  0  0  0  0  0  0
++         0  0  0  0  0  0  0  0  0  0  0  0  0  0  0  0  0
++         0  0  0  0  0  0  0  0  0  0  0  0  0  0  0  0  0
%c cc cc ccc ccc cccc cccc cccc cccc ccccc ccccc ccccc ccccc
%c cc cc ccc ccc cccc cccc cccc cccc ccccc ccccc ccccc ccccc
%f  0.0000000  0.000000000  0.00000000000  0.000000000000000
%f  0.0000000  0.000000000  0.00000000000  0.000000000000000
%i    0    0    0    0      0      0      0      0         0
%i    0    0    0    0      0      0      0      0         0
/*      NGA, ST. LOUIS,MO.                                  
/*   EPHEMERIS COMPUTED FROM  1 DAYS OF DATA
/*   EPOCHA SMOOTHER  
/* CCCCCCCCCCCCCCCCCCCCCCCCCCCCCCCCCCCCCCCCCCCCCCCCCCCCCCCCC
*  2012  9  2 10  0  0.00000000                                                 
P  1 -22381.319930 -13521.323706   4796.922583    272.044574                    
V  1  -3080.101929  -5925.326174 -30938.335157      0.015219                    
P  2   9368.418459  20579.880150  14473.418584    401.661252                    
V  2 -15600.169170  -9221.094796  22938.951212      0.010935                    
P  3  -4114.346922 -15872.729194 -21359.436895     96.209767                    
V  3  23142.804486 -12164.433371   4948.811555      0.050121                    
P  4  -5101.060036  15377.330254  20739.523877    292.437418                    
V  4 -21754.641533 -16144.718812   6843.912321      0.112838                    
P  5   2961.817121  24667.562711  -9222.081510   -348.686621                    
V  5  -4671.968973  11172.878545  28571.313280     -0.030996                    
P  6   2064.575112 -17099.666530 -20033.284909    -21.335827                    
V  6  24047.367025  -9547.848726  10886.676052     -0.080374                    
P  7 -20674.092052  -2515.608544 -16620.008709    117.510333                    
V  7 -15317.168406 -14442.791109  20929.617652      0.042066                    
P  8 -12071.267996   8157.665685 -22165.583863      2.115364                    
V  8 -20171.913470 -19700.108869   3150.254459     -0.000205                    
P  9  20704.019335  16577.406104   -363.014435    182.824264                    
V  9  -1137.836758   1786.226563 -32322.657664      0.025931                    
P 10  -9301.765107  23507.948238   7176.090512    -50.343685                    
V 10  -1841.662473 -10034.757075  29826.467421     -0.013039                    
P 11 -22771.725182 -13393.582694  -4430.754834   -298.507571                    
V 11   6553.323400  -2274.912588 -29198.840638     -0.038756                    
P 12  12233.476438  11004.397649  20874.589328     88.722094                    
V 12  -5270.312852  25920.663768 -10381.477438      0.020475                    
P 13 -25899.412884   4990.847199   3469.269816    183.897080                    
V 13   3837.671045  -3130.381852  31799.506051     -0.025589                    
P 14  18847.167799 -14408.453519  11975.428040    211.644560                    
V 14  14842.862663  -2593.198564 -27058.330750      0.009719                    
P 15  16671.536921   8042.886583 -19129.502032    -94.666674                    
V 15 -21836.678261  10678.254411 -14325.654448     -0.006184                    
P 16  -1581.094949 -24603.627787  -9458.899030   -245.133361                    
V 16   4493.516405 -11419.104970  29273.404995     -0.008329                    
P 17 -18677.885901  14946.076109  11460.893043     99.960737                    
V 17 -14367.197750   2406.643403 -27214.610420     -0.032085                    
P 18  15568.171694 -10243.737382 -18414.649477    213.013587                    
V 18  -1716.961174  24437.129782 -15102.612624      0.018216                    
P 19 -14222.581900 -10444.232281 -20033.780018   -300.067190                    
V 19  23925.532821  -7898.414243 -12516.080882     -0.035248                    
P 20 -14757.089626  -7359.587978  20672.934490     67.393509                    
V 20   3583.035675 -26496.027139  -6754.011595      0.007268                    
P 21  19898.826861   -503.125044 -17337.379730   -247.092434                    
V 21  16613.174523  15887.561912  17521.162796     -0.024113                    
P 22  10394.282396 -22637.973247  -8839.055822    147.281893                    
V 22   1790.759268  12024.912346 -28216.992279      0.005738                    
P 23 -22350.288048  -2470.434752  14485.710667    168.751694                    
V 23  16336.869151  -8142.323790  23521.816020     -0.039338                    
P 25  15314.026283  -3979.515821  21280.987179     41.516912                    
V 25  -3216.089189  26919.499220   7394.028047      0.011829                    
P 26   3788.165405  14552.431704 -22509.536565   -294.533219                    
V 26 -25997.648594   7398.579723    768.491281      0.127545                    
P 27  20057.216274  17461.179255  -3078.213689    426.850895                    
V 27  -4712.966011  -1345.924527 -31568.371730      0.040883                    
P 28 -11929.165076  20413.748717 -11319.584875    181.350527                    
V 28    902.976257 -15418.495644 -27627.275854      0.038112                    
P 29  25248.457986  -2929.229047   7684.893934    351.025546                    
V 29  -8356.521819   5543.869143  29816.571446      0.041844                    
P 30   2295.044634 -26411.812116   1391.762247   -402.098110                    
V 30   2706.732510   2340.617989  31679.940347     -0.240691                    
P 31   2278.518097 -16337.603320  20948.173830    271.695276                    
V 31  20617.249923  16138.566695  10676.011157      0.025855                    
P 32  -9227.060529 -17346.821622  18284.344991   -483.445140                    
V 32   6690.690456 -21713.908380 -16923.568610     -0.041943                    
EOF
